{
  "signature": {
    "version": "1.0",
    "source": "NASA/JPL SBDB (Small-Body DataBase) Query API"
  },
  "fields": [
    "full_name",
    "first_obs",
    "epoch",
    "e",
    "a",
    "q",
    "i",
    "om",
    "w"
  ],
  "data": [
    [
      "164294 (2004 XZ130)",
      "2004-12-13",
      "2460800.5",
      "0.4544",
      "0.6176",
      "0.337",
      "2.95",
      "211.15",
      "5.43"
    ],
    [
      "       (1998 DK36)",
      "1998-02-23",
      "2450868.5",
      "0.4160",
      "0.6923",
      "0.404",
      "2.02",
      "151.46",
      "180.04"
    ],
    [
      "       (2012 VE46)",
      "2012-11-06",
      "2460800.5",
      "0.3612",
      "0.7131",
      "0.455",
      "6.67",
      "8.64",
      "190.61"
    ],
    [
      "       (2015 DR215)",
      "2015-02-18",
      "2460800.5",
      "0.4715",
      "0.6666",
      "0.352",
      "4.06",
      "314.56",
      "42.70"
    ],
    [
      "       (2021 LJ4)",
      "2016-03-05",
      "2460800.5",
      "0.3820",
      "0.6764",
      "0.418",
      "9.82",
      "277.56",
      "56.63"
    ],
    [
      "       (2024 WD19)",
      "2024-11-28",
      "2460800.5",
      "0.1579",
      "0.6795",
      "0.572",
      "3.79",
      "51.42",
      "263.68"
    ]
  ],
  "count": 6
}